FLOCK 4G-24             
1 62637U 25009AE  26068.72509072  .00010513  00000+0  38996-3 0  9991
2 62637  97.4061 151.5140 0001802 280.2808  79.8228 15.27784978 63732
STARLINK-36070          
1 66864U 25281S   26068.10784039  .00030478  00000+0  11126-2 0  9996
2 66864  43.0021 347.0065 0001805 253.1497 106.9157 15.27576757 16099
